QIANFAN-25              
1 61558U 24185G   25317.61264625  .00001215  00000+0  73455-3 0  9990
2 61558  88.9796  81.4791 0010720  46.1118 314.0948 14.05870852 65410
QIANFAN-26              
1 61559U 24185H   25317.62646384  .00000578  00000+0  56571-3 0  9999
2 61559  88.9795  82.8866 0007542 100.2215 259.9802 13.77787320 64663
QIANFAN-27              
1 61560U 24185J   25317.65421154  .00001647  00000+0  66769-3 0  9998
2 61560  88.9791  80.3473 0008813  38.2241 321.9577 14.27280838 66017
QIANFAN-28              
1 61561U 24185K   25317.65032762  .00002975  00000+0  11948-2 0  9995
2 61561  88.9805  80.3482 0008010  39.7264 320.4515 14.27947627 66027
QIANFAN-29              
1 61562U 24185L   25317.63226076  .00000365  00000+0  54585-3 0  9993
2 61562  88.9771  84.3122 0011532 130.9341 229.2810 13.50996547 63861
QIANFAN-30              
1 61563U 24185M   25317.65921825  .00000458  00000+0  70197-3 0  9990
2 61563  88.9791  83.8236 0009153 117.2387 242.9697 13.49974081 64142
QIANFAN-31              
1 61564U 24185N   25317.65094912  .00000445  00000+0  60008-3 0  9995
2 61564  88.9775  83.6727 0008736 113.0825 247.1252 13.57951965 64212
QIANFAN-32              
1 61565U 24185P   25317.64370461  .00000302  00000+0  45125-3 0  9996
2 61565  88.9834  83.9505 0010651 141.0783 219.1137 13.50721480 64119
